[{"OBJECT_NAME":"STARLINK-32771","OBJECT_ID":"2025-006V","EPOCH":"2025-10-18T22:03:32.258304","MEAN_MOTION":15.27621003,"ECCENTRICITY":3.712e-5,"INCLINATION":43.0001,"RA_OF_ASC_NODE":12.9637,"ARG_OF_PERICENTER":238.2738,"MEAN_ANOMALY":121.8078,"EPHEMERIS_TYPE":0,"CLASSIFICATION_TYPE":"U","NORAD_CAT_ID":62573,"ELEMENT_SET_NO":999,"REV_AT_EPOCH":4318,"BSTAR":0.0015303026,"MEAN_MOTION_DOT":0.00042142,"MEAN_MOTION_DDOT":0},{"OBJECT_NAME":"STARLINK-32766","OBJECT_ID":"2025-006W","EPOCH":"2025-10-18T22:29:26.418048","MEAN_MOTION":15.27628946,"ECCENTRICITY":8.868e-5,"INCLINATION":43.0025,"RA_OF_ASC_NODE":13.0975,"ARG_OF_PERICENTER":278.5791,"MEAN_ANOMALY":81.496,"EPHEMERIS_TYPE":0,"CLASSIFICATION_TYPE":"U","NORAD_CAT_ID":62574,"ELEMENT_SET_NO":999,"REV_AT_EPOCH":4318,"BSTAR":0.001838998,"MEAN_MOTION_DOT":0.00050768,"MEAN_MOTION_DDOT":0},{"OBJECT_NAME":"STARLINK-11547 [DTC]","OBJECT_ID":"2025-008A","EPOCH":"2025-10-18T08:06:47.760192","MEAN_MOTION":15.70945814,"ECCENTRICITY":0.00043585,"INCLINATION":43.0011,"RA_OF_ASC_NODE":264.4296,"ARG_OF_PERICENTER":276.8481,"MEAN_ANOMALY":83.1891,"EPHEMERIS_TYPE":0,"CLASSIFICATION_TYPE":"U","NORAD_CAT_ID":62587,"ELEMENT_SET_NO":999,"REV_AT_EPOCH":4372,"BSTAR":0.0022623955,"MEAN_MOTION_DOT":0.00302048,"MEAN_MOTION_DDOT":0},{"OBJECT_NAME":"STARLINK-11185 [DTC]","OBJECT_ID":"2025-008B","EPOCH":"2025-10-19T04:42:45.810720","MEAN_MOTION":15.7094162,"ECCENTRICITY":0.00011333,"INCLINATION":42.9994,"RA_OF_ASC_NODE":258.805,"ARG_OF_PERICENTER":214.5659,"MEAN_ANOMALY":145.5135,"EPHEMERIS_TYPE":0,"CLASSIFICATION_TYPE":"U","NORAD_CAT_ID":62588,"ELEMENT_SET_NO":999,"REV_AT_EPOCH":4386,"BSTAR":0.0035094561,"MEAN_MOTION_DOT":0.00478862,"MEAN_MOTION_DDOT":0},{"OBJECT_NAME":"STARLINK-11513 [DTC]","OBJECT_ID":"2025-008C","EPOCH":"2025-10-19T05:13:20.973504","MEAN_MOTION":15.71075656,"ECCENTRICITY":0.00016,"INCLINATION":42.9989,"RA_OF_ASC_NODE":258.975,"ARG_OF_PERICENTER":141.6401,"MEAN_ANOMALY":218.458,"EPHEMERIS_TYPE":0,"CLASSIFICATION_TYPE":"U","NORAD_CAT_ID":62589,"ELEMENT_SET_NO":999,"REV_AT_EPOCH":4386,"BSTAR":0.0031053532,"MEAN_MOTION_DOT":0.00423147,"MEAN_MOTION_DDOT":0},{"OBJECT_NAME":"STARLINK-11397 [DTC]","OBJECT_ID":"2025-008D","EPOCH":"2025-10-19T05:51:23.342688","MEAN_MOTION":15.70880676,"ECCENTRICITY":0.00020849,"INCLINATION":43.0003,"RA_OF_ASC_NODE":258.2925,"ARG_OF_PERICENTER":265.7874,"MEAN_ANOMALY":94.2755,"EPHEMERIS_TYPE":0,"CLASSIFICATION_TYPE":"U","NORAD_CAT_ID":62590,"ELEMENT_SET_NO":999,"REV_AT_EPOCH":4498,"BSTAR":0.0017102462,"MEAN_MOTION_DOT":0.00225443,"MEAN_MOTION_DDOT":0},{"OBJECT_NAME":"STARLINK-11420 [DTC]","OBJECT_ID":"2025-008E","EPOCH":"2025-10-19T00:46:18.668064","MEAN_MOTION":15.70859113,"ECCENTRICITY":0.00028992,"INCLINATION":43.0068,"RA_OF_ASC_NODE":260.1755,"ARG_OF_PERICENTER":170.5191,"MEAN_ANOMALY":189.5732,"EPHEMERIS_TYPE":0,"CLASSIFICATION_TYPE":"U","NORAD_CAT_ID":62591,"ELEMENT_SET_NO":999,"REV_AT_EPOCH":4501,"BSTAR":0.0027281199,"MEAN_MOTION_DOT":0.00365755,"MEAN_MOTION_DDOT":0},{"OBJECT_NAME":"STARLINK-11415 [DTC]","OBJECT_ID":"2025-008F","EPOCH":"2025-10-18T08:22:06.018528","MEAN_MOTION":15.70835013,"ECCENTRICITY":5.268e-5,"INCLINATION":42.9996,"RA_OF_ASC_NODE":264.5118,"ARG_OF_PERICENTER":279.8253,"MEAN_ANOMALY":80.2555,"EPHEMERIS_TYPE":0,"CLASSIFICATION_TYPE":"U","NORAD_CAT_ID":62592,"ELEMENT_SET_NO":999,"REV_AT_EPOCH":4483,"BSTAR":0.0019215819,"MEAN_MOTION_DOT":0.00253747,"MEAN_MOTION_DDOT":0},{"OBJECT_NAME":"STARLINK-11413 [DTC]","OBJECT_ID":"2025-008G","EPOCH":"2025-10-18T06:42:53.186400","MEAN_MOTION":15.70891532,"ECCENTRICITY":0.00020494,"INCLINATION":42.9994,"RA_OF_ASC_NODE":264.8514,"ARG_OF_PERICENTER":276.2389,"MEAN_ANOMALY":83.8245,"EPHEMERIS_TYPE":0,"CLASSIFICATION_TYPE":"U","NORAD_CAT_ID":62593,"ELEMENT_SET_NO":999,"REV_AT_EPOCH":4478,"BSTAR":0.0011555378,"MEAN_MOTION_DOT":0.00150874,"MEAN_MOTION_DDOT":0},{"OBJECT_NAME":"STARLINK-11416 [DTC]","OBJECT_ID":"2025-008H","EPOCH":"2025-10-19T04:35:06.146304","MEAN_MOTION":15.7097963,"ECCENTRICITY":0.00011608,"INCLINATION":42.9999,"RA_OF_ASC_NODE":258.7251,"ARG_OF_PERICENTER":222.0138,"MEAN_ANOMALY":138.0641,"EPHEMERIS_TYPE":0,"CLASSIFICATION_TYPE":"U","NORAD_CAT_ID":62594,"ELEMENT_SET_NO":999,"REV_AT_EPOCH":4486,"BSTAR":0.0023323286,"MEAN_MOTION_DOT":0.00312166,"MEAN_MOTION_DDOT":0},{"OBJECT_NAME":"STARLINK-11535 [DTC]","OBJECT_ID":"2025-008J","EPOCH":"2025-10-18T22:21:13.994208","MEAN_MOTION":15.70986302,"ECCENTRICITY":0.00017149,"INCLINATION":42.9987,"RA_OF_ASC_NODE":260.2486,"ARG_OF_PERICENTER":256.8805,"MEAN_ANOMALY":103.1872,"EPHEMERIS_TYPE":0,"CLASSIFICATION_TYPE":"U","NORAD_CAT_ID":62595,"ELEMENT_SET_NO":999,"REV_AT_EPOCH":4484,"BSTAR":0.0037875114,"MEAN_MOTION_DOT":0.00520425,"MEAN_MOTION_DDOT":0},{"OBJECT_NAME":"STARLINK-11521 [DTC]","OBJECT_ID":"2025-008L","EPOCH":"2025-10-19T04:50:24.591264","MEAN_MOTION":15.71066755,"ECCENTRICITY":6.865e-5,"INCLINATION":42.9993,"RA_OF_ASC_NODE":258.8436,"ARG_OF_PERICENTER":167.3532,"MEAN_ANOMALY":192.7354,"EPHEMERIS_TYPE":0,"CLASSIFICATION_TYPE":"U","NORAD_CAT_ID":62597,"ELEMENT_SET_NO":999,"REV_AT_EPOCH":4503,"BSTAR":0.0029945312,"MEAN_MOTION_DOT":0.00407106,"MEAN_MOTION_DDOT":0},{"OBJECT_NAME":"STARLINK-11258 [DTC]","OBJECT_ID":"2025-008M","EPOCH":"2025-10-19T06:29:37.074336","MEAN_MOTION":15.70874807,"ECCENTRICITY":0.00012454,"INCLINATION":42.9981,"RA_OF_ASC_NODE":258.5014,"ARG_OF_PERICENTER":274.9327,"MEAN_ANOMALY":85.1398,"EPHEMERIS_TYPE":0,"CLASSIFICATION_TYPE":"U","NORAD_CAT_ID":62598,"ELEMENT_SET_NO":999,"REV_AT_EPOCH":4504,"BSTAR":0.0016253143,"MEAN_MOTION_DOT":0.00213868,"MEAN_MOTION_DDOT":0},{"OBJECT_NAME":"STARLINK-11529 [DTC]","OBJECT_ID":"2025-008N","EPOCH":"2025-10-19T05:05:41.672832","MEAN_MOTION":15.70991094,"ECCENTRICITY":4.766e-5,"INCLINATION":42.9997,"RA_OF_ASC_NODE":258.9284,"ARG_OF_PERICENTER":193.4534,"MEAN_ANOMALY":166.6321,"EPHEMERIS_TYPE":0,"CLASSIFICATION_TYPE":"U","NORAD_CAT_ID":62599,"ELEMENT_SET_NO":999,"REV_AT_EPOCH":4504,"BSTAR":0.0026865308,"MEAN_MOTION_DOT":0.00362032,"MEAN_MOTION_DDOT":0},{"OBJECT_NAME":"STARLINK-32747","OBJECT_ID":"2025-008P","EPOCH":"2025-10-18T21:16:26.856480","MEAN_MOTION":15.27585806,"ECCENTRICITY":0.00025317,"INCLINATION":42.9993,"RA_OF_ASC_NODE":359.0843,"ARG_OF_PERICENTER":51.3806,"MEAN_ANOMALY":308.7272,"EPHEMERIS_TYPE":0,"CLASSIFICATION_TYPE":"U","NORAD_CAT_ID":62600,"ELEMENT_SET_NO":999,"REV_AT_EPOCH":4387,"BSTAR":0.0029178094,"MEAN_MOTION_DOT":0.00080932,"MEAN_MOTION_DDOT":0},{"OBJECT_NAME":"STARLINK-32767","OBJECT_ID":"2025-008Q","EPOCH":"2025-10-18T21:58:46.123104","MEAN_MOTION":15.27596077,"ECCENTRICITY":9.57e-6,"INCLINATION":43.0035,"RA_OF_ASC_NODE":358.4375,"ARG_OF_PERICENTER":241.8046,"MEAN_ANOMALY":118.2796,"EPHEMERIS_TYPE":0,"CLASSIFICATION_TYPE":"U","NORAD_CAT_ID":62601,"ELEMENT_SET_NO":999,"REV_AT_EPOCH":4394,"BSTAR":0.0027439379,"MEAN_MOTION_DOT":0.00076064,"MEAN_MOTION_DDOT":0}]
