STARLINK-32771          
1 62573U 25006V   25291.91912336  .00042142  00000+0  15303-2 0  9995
2 62573  43.0001  12.9637 0000371 238.2738 121.8078 15.27621003 43185
STARLINK-32766          
1 62574U 25006W   25291.93711132  .00050768  00000+0  18390-2 0  9991
2 62574  43.0025  13.0975 0000886 278.5791  81.4960 15.27628946 43180
STARLINK-11547 [DTC]    
1 62587U 25008A   25291.33805278  .00302048  00000+0  22624-2 0  9992
2 62587  43.0011 264.4296 0004358 276.8481  83.1891 15.70945814 43728
STARLINK-11185 [DTC]    
1 62588U 25008B   25292.19636355  .00478862  00000+0  35095-2 0  9990
2 62588  42.9994 258.8050 0001133 214.5659 145.5135 15.70941620 43866
STARLINK-11513 [DTC]    
1 62589U 25008C   25292.21760386  .00423147  00000+0  31054-2 0  9993
2 62589  42.9989 258.9750 0001600 141.6401 218.4580 15.71075656 43865
STARLINK-11397 [DTC]    
1 62590U 25008D   25292.24402017  .00225443  00000+0  17102-2 0  9999
2 62590  43.0003 258.2925 0002084 265.7874  94.2755 15.70880676 44985
STARLINK-11420 [DTC]    
1 62591U 25008E   25292.03216051  .00365755  00000+0  27281-2 0  9998
2 62591  43.0068 260.1755 0002899 170.5191 189.5732 15.70859113 45019
STARLINK-11415 [DTC]    
1 62592U 25008F   25291.34868077  .00253747  00000+0  19216-2 0  9999
2 62592  42.9996 264.5118 0000526 279.8253  80.2555 15.70835013 44838
STARLINK-11413 [DTC]    
1 62593U 25008G   25291.27978225  .00150874  00000+0  11555-2 0  9994
2 62593  42.9994 264.8514 0002049 276.2389  83.8245 15.70891532 44780
STARLINK-11416 [DTC]    
1 62594U 25008H   25292.19104336  .00312166  00000+0  23323-2 0  9991
2 62594  42.9999 258.7251 0001160 222.0138 138.0641 15.70979630 44868
STARLINK-11535 [DTC]    
1 62595U 25008J   25291.93141197  .00520425  00000+0  37875-2 0  9995
2 62595  42.9987 260.2486 0001714 256.8805 103.1872 15.70986302 44846
STARLINK-11521 [DTC]    
1 62597U 25008L   25292.20167351  .00407106  00000+0  29945-2 0  9997
2 62597  42.9993 258.8436 0000686 167.3532 192.7354 15.71066755 45036
STARLINK-11258 [DTC]    
1 62598U 25008M   25292.27056799  .00213868  00000+0  16253-2 0  9996
2 62598  42.9981 258.5014 0001245 274.9327  85.1398 15.70874807 45040
STARLINK-11529 [DTC]    
1 62599U 25008N   25292.21228788  .00362032  00000+0  26865-2 0  9998
2 62599  42.9997 258.9284 0000476 193.4534 166.6321 15.70991094 45040
STARLINK-32747          
1 62600U 25008P   25291.88642195  .00080932  00000+0  29178-2 0  9991
2 62600  42.9993 359.0843 0002531  51.3806 308.7272 15.27585806 43876
STARLINK-32767          
1 62601U 25008Q   25291.91581161  .00076064  00000+0  27439-2 0  9990
2 62601  43.0035 358.4375 0000095 241.8046 118.2796 15.27596077 43949
